[{"OBJECT_NAME":"STARLINK-2456","OBJECT_ID":"2021-018BM","EPOCH":"2023-11-23T12:29:58.943040","MEAN_MOTION":15.06399399,"ECCENTRICITY":0.0001232,"INCLINATION":53.0556,"RA_OF_ASC_NODE":50.2386,"ARG_OF_PERICENTER":142.2048,"MEAN_ANOMALY":217.9028,"EPHEMERIS_TYPE":0,"CLASSIFICATION_TYPE":"U","NORAD_CAT_ID":47846,"ELEMENT_SET_NO":999,"REV_AT_EPOCH":15007,"BSTAR":0.0011299,"MEAN_MOTION_DOT":0.00016588,"MEAN_MOTION_DDOT":0},{"OBJECT_NAME":"SHIYAN 9 (SY-9)","OBJECT_ID":"2021-019A","EPOCH":"2023-11-23T19:42:42.738336","MEAN_MOTION":1.00279516,"ECCENTRICITY":0.00134,"INCLINATION":18.5322,"RA_OF_ASC_NODE":314.4619,"ARG_OF_PERICENTER":2.1871,"MEAN_ANOMALY":188.1159,"EPHEMERIS_TYPE":0,"CLASSIFICATION_TYPE":"U","NORAD_CAT_ID":47851,"ELEMENT_SET_NO":999,"REV_AT_EPOCH":1474,"BSTAR":0,"MEAN_MOTION_DOT":-2.44e-6,"MEAN_MOTION_DDOT":0},{"OBJECT_NAME":"YAOGAN-31 K","OBJECT_ID":"2021-020A","EPOCH":"2023-11-24T03:24:52.165152","MEAN_MOTION":13.45287367,"ECCENTRICITY":0.0091167,"INCLINATION":63.4062,"RA_OF_ASC_NODE":142.3758,"ARG_OF_PERICENTER":356.5622,"MEAN_ANOMALY":3.4766,"EPHEMERIS_TYPE":0,"CLASSIFICATION_TYPE":"U","NORAD_CAT_ID":47854,"ELEMENT_SET_NO":999,"REV_AT_EPOCH":13264,"BSTAR":0.00012292,"MEAN_MOTION_DOT":-1.6e-7,"MEAN_MOTION_DDOT":0},{"OBJECT_NAME":"YAOGAN-31 L","OBJECT_ID":"2021-020C","EPOCH":"2023-11-24T03:25:09.130656","MEAN_MOTION":13.45286227,"ECCENTRICITY":0.0090899,"INCLINATION":63.4056,"RA_OF_ASC_NODE":143.2045,"ARG_OF_PERICENTER":356.6007,"MEAN_ANOMALY":3.439,"EPHEMERIS_TYPE":0,"CLASSIFICATION_TYPE":"U","NORAD_CAT_ID":47856,"ELEMENT_SET_NO":999,"REV_AT_EPOCH":13262,"BSTAR":0.00013244,"MEAN_MOTION_DOT":-1.0e-7,"MEAN_MOTION_DDOT":0},{"OBJECT_NAME":"YAOGAN-31 M","OBJECT_ID":"2021-020D","EPOCH":"2023-11-24T03:25:12.311040","MEAN_MOTION":13.45287362,"ECCENTRICITY":0.0091069,"INCLINATION":63.4067,"RA_OF_ASC_NODE":142.4092,"ARG_OF_PERICENTER":356.5792,"MEAN_ANOMALY":3.4601,"EPHEMERIS_TYPE":0,"CLASSIFICATION_TYPE":"U","NORAD_CAT_ID":47857,"ELEMENT_SET_NO":999,"REV_AT_EPOCH":13263,"BSTAR":0.00014269,"MEAN_MOTION_DOT":-4.0e-8,"MEAN_MOTION_DDOT":0},{"OBJECT_NAME":"STARLINK-2258","OBJECT_ID":"2021-021A","EPOCH":"2023-11-23T13:13:42.398688","MEAN_MOTION":15.06390673,"ECCENTRICITY":0.0001557,"INCLINATION":53.0549,"RA_OF_ASC_NODE":79.6771,"ARG_OF_PERICENTER":129.2976,"MEAN_ANOMALY":230.8151,"EPHEMERIS_TYPE":0,"CLASSIFICATION_TYPE":"U","NORAD_CAT_ID":47860,"ELEMENT_SET_NO":999,"REV_AT_EPOCH":14977,"BSTAR":-6.5784e-5,"MEAN_MOTION_DOT":-1.261e-5,"MEAN_MOTION_DDOT":0},{"OBJECT_NAME":"STARLINK-2280","OBJECT_ID":"2021-021B","EPOCH":"2023-11-23T12:04:02.155872","MEAN_MOTION":15.06394319,"ECCENTRICITY":0.0001803,"INCLINATION":53.0558,"RA_OF_ASC_NODE":64.8947,"ARG_OF_PERICENTER":128.8533,"MEAN_ANOMALY":231.2617,"EPHEMERIS_TYPE":0,"CLASSIFICATION_TYPE":"U","NORAD_CAT_ID":47861,"ELEMENT_SET_NO":999,"REV_AT_EPOCH":15008,"BSTAR":-0.00015923,"MEAN_MOTION_DOT":-2.652e-5,"MEAN_MOTION_DDOT":0},{"OBJECT_NAME":"STARLINK-2291","OBJECT_ID":"2021-021C","EPOCH":"2023-11-23T16:22:08.143680","MEAN_MOTION":15.06396071,"ECCENTRICITY":0.0001138,"INCLINATION":53.0557,"RA_OF_ASC_NODE":59.0935,"ARG_OF_PERICENTER":52.6868,"MEAN_ANOMALY":307.4225,"EPHEMERIS_TYPE":0,"CLASSIFICATION_TYPE":"U","NORAD_CAT_ID":47862,"ELEMENT_SET_NO":999,"REV_AT_EPOCH":15017,"BSTAR":0.00044221,"MEAN_MOTION_DOT":6.311e-5,"MEAN_MOTION_DDOT":0},{"OBJECT_NAME":"STARLINK-2293","OBJECT_ID":"2021-021D","EPOCH":"2023-11-23T13:46:52.651200","MEAN_MOTION":15.06390705,"ECCENTRICITY":0.0001537,"INCLINATION":53.0563,"RA_OF_ASC_NODE":69.5727,"ARG_OF_PERICENTER":138.3514,"MEAN_ANOMALY":221.7592,"EPHEMERIS_TYPE":0,"CLASSIFICATION_TYPE":"U","NORAD_CAT_ID":47863,"ELEMENT_SET_NO":999,"REV_AT_EPOCH":15002,"BSTAR":-0.00020311,"MEAN_MOTION_DOT":-3.305e-5,"MEAN_MOTION_DDOT":0},{"OBJECT_NAME":"STARLINK-2304","OBJECT_ID":"2021-021E","EPOCH":"2023-11-23T13:16:22.128096","MEAN_MOTION":15.06394183,"ECCENTRICITY":0.0001331,"INCLINATION":53.0562,"RA_OF_ASC_NODE":59.7203,"ARG_OF_PERICENTER":123.1998,"MEAN_ANOMALY":236.9119,"EPHEMERIS_TYPE":0,"CLASSIFICATION_TYPE":"U","NORAD_CAT_ID":47864,"ELEMENT_SET_NO":999,"REV_AT_EPOCH":15013,"BSTAR":-0.00010053,"MEAN_MOTION_DOT":-1.778e-5,"MEAN_MOTION_DDOT":0},{"OBJECT_NAME":"STARLINK-2310","OBJECT_ID":"2021-021F","EPOCH":"2023-11-23T14:43:53.908896","MEAN_MOTION":15.06396939,"ECCENTRICITY":0.0001158,"INCLINATION":53.0545,"RA_OF_ASC_NODE":69.3877,"ARG_OF_PERICENTER":119.0023,"MEAN_ANOMALY":241.1082,"EPHEMERIS_TYPE":0,"CLASSIFICATION_TYPE":"U","NORAD_CAT_ID":47865,"ELEMENT_SET_NO":999,"REV_AT_EPOCH":15013,"BSTAR":0.00020444,"MEAN_MOTION_DOT":2.765e-5,"MEAN_MOTION_DDOT":0},{"OBJECT_NAME":"STARLINK-2320","OBJECT_ID":"2021-021G","EPOCH":"2023-11-23T13:15:03.568896","MEAN_MOTION":15.06389819,"ECCENTRICITY":0.000109,"INCLINATION":53.0549,"RA_OF_ASC_NODE":69.6769,"ARG_OF_PERICENTER":87.184,"MEAN_ANOMALY":272.9274,"EPHEMERIS_TYPE":0,"CLASSIFICATION_TYPE":"U","NORAD_CAT_ID":47866,"ELEMENT_SET_NO":999,"REV_AT_EPOCH":15017,"BSTAR":0.00015965,"MEAN_MOTION_DOT":2.097e-5,"MEAN_MOTION_DDOT":0},{"OBJECT_NAME":"STARLINK-2321","OBJECT_ID":"2021-021H","EPOCH":"2023-11-23T11:30:13.156416","MEAN_MOTION":15.06376293,"ECCENTRICITY":0.0001057,"INCLINATION":53.0556,"RA_OF_ASC_NODE":60.0061,"ARG_OF_PERICENTER":85.4767,"MEAN_ANOMALY":274.6343,"EPHEMERIS_TYPE":0,"CLASSIFICATION_TYPE":"U","NORAD_CAT_ID":47867,"ELEMENT_SET_NO":999,"REV_AT_EPOCH":15010,"BSTAR":-0.00054125,"MEAN_MOTION_DOT":-8.329e-5,"MEAN_MOTION_DDOT":0},{"OBJECT_NAME":"STARLINK-2323","OBJECT_ID":"2021-021J","EPOCH":"2023-11-23T12:56:27.814848","MEAN_MOTION":15.06387216,"ECCENTRICITY":0.0001438,"INCLINATION":53.0558,"RA_OF_ASC_NODE":9.735,"ARG_OF_PERICENTER":89.7397,"MEAN_ANOMALY":270.3757,"EPHEMERIS_TYPE":0,"CLASSIFICATION_TYPE":"U","NORAD_CAT_ID":47868,"ELEMENT_SET_NO":999,"REV_AT_EPOCH":15086,"BSTAR":-0.00019375,"MEAN_MOTION_DOT":-3.165e-5,"MEAN_MOTION_DDOT":0},{"OBJECT_NAME":"STARLINK-2324","OBJECT_ID":"2021-021K","EPOCH":"2023-11-23T13:00:25.945344","MEAN_MOTION":15.06393606,"ECCENTRICITY":0.0001322,"INCLINATION":53.0567,"RA_OF_ASC_NODE":59.7199,"ARG_OF_PERICENTER":126.0133,"MEAN_ANOMALY":234.0979,"EPHEMERIS_TYPE":0,"CLASSIFICATION_TYPE":"U","NORAD_CAT_ID":47869,"ELEMENT_SET_NO":999,"REV_AT_EPOCH":14968,"BSTAR":-0.00023628,"MEAN_MOTION_DOT":-3.798e-5,"MEAN_MOTION_DDOT":0},{"OBJECT_NAME":"STARLINK-2326","OBJECT_ID":"2021-021L","EPOCH":"2023-11-23T13:26:18.866112","MEAN_MOTION":15.06398281,"ECCENTRICITY":0.0001476,"INCLINATION":53.054,"RA_OF_ASC_NODE":84.64,"ARG_OF_PERICENTER":109.2148,"MEAN_ANOMALY":250.9001,"EPHEMERIS_TYPE":0,"CLASSIFICATION_TYPE":"U","NORAD_CAT_ID":47870,"ELEMENT_SET_NO":999,"REV_AT_EPOCH":14970,"BSTAR":8.9253e-6,"MEAN_MOTION_DOT":-1.49e-6,"MEAN_MOTION_DDOT":0},{"OBJECT_NAME":"STARLINK-2327","OBJECT_ID":"2021-021M","EPOCH":"2023-11-23T11:19:35.011200","MEAN_MOTION":15.06403523,"ECCENTRICITY":0.000114,"INCLINATION":53.0553,"RA_OF_ASC_NODE":60.0358,"ARG_OF_PERICENTER":125.4119,"MEAN_ANOMALY":234.6977,"EPHEMERIS_TYPE":0,"CLASSIFICATION_TYPE":"U","NORAD_CAT_ID":47871,"ELEMENT_SET_NO":999,"REV_AT_EPOCH":15014,"BSTAR":4.9569e-5,"MEAN_MOTION_DOT":4.57e-6,"MEAN_MOTION_DDOT":0}]
