STARLINK-2456           
1 47846U 21018BM  23327.52082110  .00016588  00000+0  11299-2 0  9998
2 47846  53.0556  50.2386 0001232 142.2048 217.9028 15.06399399150074
SHIYAN 9 (SY-9)         
1 47851U 21019A   23327.82132799 -.00000244  00000+0  00000+0 0  9995
2 47851  18.5322 314.4619 0013400   2.1871 188.1159  1.00279516 14743
YAOGAN-31 K             
1 47854U 21020A   23328.14227043 -.00000016  00000+0  12292-3 0  9990
2 47854  63.4062 142.3758 0091167 356.5622   3.4766 13.45287367132642
YAOGAN-31 L             
1 47856U 21020C   23328.14246679 -.00000010  00000+0  13244-3 0  9990
2 47856  63.4056 143.2045 0090899 356.6007   3.4390 13.45286227132620
YAOGAN-31 M             
1 47857U 21020D   23328.14250360 -.00000004  00000+0  14269-3 0  9994
2 47857  63.4067 142.4092 0091069 356.5792   3.4601 13.45287362132633
STARLINK-2258           
1 47860U 21021A   23327.55118517 -.00001261  00000+0 -65784-4 0  9996
2 47860  53.0549  79.6771 0001557 129.2976 230.8151 15.06390673149772
STARLINK-2280           
1 47861U 21021B   23327.50280273 -.00002652  00000+0 -15923-3 0  9995
2 47861  53.0558  64.8947 0001803 128.8533 231.2617 15.06394319150081
STARLINK-2291           
1 47862U 21021C   23327.68203870  .00006311  00000+0  44221-3 0  9990
2 47862  53.0557  59.0935 0001138  52.6868 307.4225 15.06396071150178
STARLINK-2293           
1 47863U 21021D   23327.57422050 -.00003305  00000+0 -20311-3 0  9998
2 47863  53.0563  69.5727 0001537 138.3514 221.7592 15.06390705150021
STARLINK-2304           
1 47864U 21021E   23327.55303389 -.00001778  00000+0 -10053-3 0  9994
2 47864  53.0562  59.7203 0001331 123.1998 236.9119 15.06394183150130
STARLINK-2310           
1 47865U 21021F   23327.61381839  .00002765  00000+0  20444-3 0  9998
2 47865  53.0545  69.3877 0001158 119.0023 241.1082 15.06396939150134
STARLINK-2320           
1 47866U 21021G   23327.55212464  .00002097  00000+0  15965-3 0  9999
2 47866  53.0549  69.6769 0001090  87.1840 272.9274 15.06389819150177
STARLINK-2321           
1 47867U 21021H   23327.47931894 -.00008329  00000+0 -54125-3 0  9993
2 47867  53.0556  60.0061 0001057  85.4767 274.6343 15.06376293150109
STARLINK-2323           
1 47868U 21021J   23327.53921082 -.00003165  00000+0 -19375-3 0  9990
2 47868  53.0558   9.7350 0001438  89.7397 270.3757 15.06387216150864
STARLINK-2324           
1 47869U 21021K   23327.54196696 -.00003798  00000+0 -23628-3 0  9995
2 47869  53.0567  59.7199 0001322 126.0133 234.0979 15.06393606149687
STARLINK-2326           
1 47870U 21021L   23327.55994058 -.00000149  00000+0  89253-5 0  9990
2 47870  53.0540  84.6400 0001476 109.2148 250.9001 15.06398281149701
STARLINK-2327           
1 47871U 21021M   23327.47193300  .00000457  00000+0  49569-4 0  9999
2 47871  53.0553  60.0358 0001140 125.4119 234.6977 15.06403523150149
